STARLINK-35805          
1 66359U 25254M   25326.83335647 -.00044857  00000+0 -30359-3 0  9996
2 66359  53.1589  13.7195 0001140  92.2117  23.6341 15.74190226  3690
STARLINK-35823          
1 66360U 25254N   25326.83335647 -.00058447  00000+0 -39738-3 0  9998
2 66360  53.1588  13.7107 0001065  88.1236  31.5553 15.74198597  3722
STARLINK-35813          
1 66361U 25254P   25326.83335647  .00079373  00000+0  54222-3 0  9993
2 66361  53.1590  13.7154 0001102  95.7958  21.9731 15.74142916  3720
STARLINK-35822          
1 66362U 25254Q   25326.83335647 -.00051294  00000+0 -34787-3 0  9992
2 66362  53.1590  13.7033 0001089  83.6961  39.8133 15.74201419  3729
STARLINK-35806          
1 66363U 25254R   25326.83335647 -.00086789  00000+0 -59358-3 0  9991
2 66363  53.1589  13.7070 0001164  92.5395  29.0514 15.74220701  3698
STARLINK-35797          
1 66364U 25254S   25326.83335647 -.00037052  00000+0 -25027-3 0  9997
2 66364  53.1589  13.6985 0001050  84.3185  41.1843 15.74145645  3720
STARLINK-35827          
1 66365U 25254T   25326.83335647 -.00032730  00000+0 -22014-3 0  9999
2 66365  53.1589  13.6915 0001057  93.7322  35.5353 15.74179370  3699
STARLINK-35845          
1 66366U 25254U   25326.83335647 -.00079335  00000+0 -54305-3 0  9990
2 66366  53.1589  13.6946 0000989  86.4041  40.9992 15.74165604  3722
STARLINK-35846          
1 66367U 25254V   25326.83335647 -.00079043  00000+0 -53987-3 0  9992
2 66367  53.1588  13.6866 0001129  94.2980  36.8770 15.74214163  3676
STARLINK-34861          
1 66368U 25254W   25326.83335647 -.00074282  00000+0 -50684-3 0  9994
2 66368  53.1587  13.6777 0001387  91.4088  43.5978 15.74211692  3771
STARLINK-35795          
1 66369U 25254X   25326.83335647 -.00050460  00000+0 -34206-3 0  9999
2 66369  53.1588  13.6820 0001084  79.0249  54.0685 15.74204828  3671
STARLINK-35824          
1 66370U 25254Y   25326.83335647  .00072335  00000+0  49583-3 0  9998
2 66370  53.1588  13.6744 0001260  88.3083  48.5534 15.74100901  3693
