CCSDS_OMM_VERS = 2.0
CREATION_DATE  = 
ORIGINATOR     = 

OBJECT_NAME    = STARLINK-35805
OBJECT_ID      = 2025-254M
CENTER_NAME    = EARTH
REF_FRAME      = TEME
TIME_SYSTEM    = UTC
MEAN_ELEMENT_THEORY = SGP/SGP4

EPOCH          = 2025-11-22T20:00:01.999008
MEAN_MOTION    = 15.74190226
ECCENTRICITY   = .000114
INCLINATION    = 53.1589
RA_OF_ASC_NODE = 13.7195
ARG_OF_PERICENTER = 92.2117
MEAN_ANOMALY   = 23.6341

EPHEMERIS_TYPE = 0
CLASSIFICATION_TYPE = U
NORAD_CAT_ID   = 66359
ELEMENT_SET_NO = 999
REV_AT_EPOCH   = 369
BSTAR          = -.30359E-3
MEAN_MOTION_DOT = -.44857E-3
MEAN_MOTION_DDOT = 0

CCSDS_OMM_VERS = 2.0
CREATION_DATE  = 
ORIGINATOR     = 

OBJECT_NAME    = STARLINK-35823
OBJECT_ID      = 2025-254N
CENTER_NAME    = EARTH
REF_FRAME      = TEME
TIME_SYSTEM    = UTC
MEAN_ELEMENT_THEORY = SGP/SGP4

EPOCH          = 2025-11-22T20:00:01.999008
MEAN_MOTION    = 15.74198597
ECCENTRICITY   = .0001065
INCLINATION    = 53.1588
RA_OF_ASC_NODE = 13.7107
ARG_OF_PERICENTER = 88.1236
MEAN_ANOMALY   = 31.5553

EPHEMERIS_TYPE = 0
CLASSIFICATION_TYPE = U
NORAD_CAT_ID   = 66360
ELEMENT_SET_NO = 999
REV_AT_EPOCH   = 372
BSTAR          = -.39738E-3
MEAN_MOTION_DOT = -.58447E-3
MEAN_MOTION_DDOT = 0

CCSDS_OMM_VERS = 2.0
CREATION_DATE  = 
ORIGINATOR     = 

OBJECT_NAME    = STARLINK-35813
OBJECT_ID      = 2025-254P
CENTER_NAME    = EARTH
REF_FRAME      = TEME
TIME_SYSTEM    = UTC
MEAN_ELEMENT_THEORY = SGP/SGP4

EPOCH          = 2025-11-22T20:00:01.999008
MEAN_MOTION    = 15.74142916
ECCENTRICITY   = .0001102
INCLINATION    = 53.1590
RA_OF_ASC_NODE = 13.7154
ARG_OF_PERICENTER = 95.7958
MEAN_ANOMALY   = 21.9731

EPHEMERIS_TYPE = 0
CLASSIFICATION_TYPE = U
NORAD_CAT_ID   = 66361
ELEMENT_SET_NO = 999
REV_AT_EPOCH   = 372
BSTAR          = .54222E-3
MEAN_MOTION_DOT = .79373E-3
MEAN_MOTION_DDOT = 0

CCSDS_OMM_VERS = 2.0
CREATION_DATE  = 
ORIGINATOR     = 

OBJECT_NAME    = STARLINK-35822
OBJECT_ID      = 2025-254Q
CENTER_NAME    = EARTH
REF_FRAME      = TEME
TIME_SYSTEM    = UTC
MEAN_ELEMENT_THEORY = SGP/SGP4

EPOCH          = 2025-11-22T20:00:01.999008
MEAN_MOTION    = 15.74201419
ECCENTRICITY   = .0001089
INCLINATION    = 53.1590
RA_OF_ASC_NODE = 13.7033
ARG_OF_PERICENTER = 83.6961
MEAN_ANOMALY   = 39.8133

EPHEMERIS_TYPE = 0
CLASSIFICATION_TYPE = U
NORAD_CAT_ID   = 66362
ELEMENT_SET_NO = 999
REV_AT_EPOCH   = 372
BSTAR          = -.34787E-3
MEAN_MOTION_DOT = -.51294E-3
MEAN_MOTION_DDOT = 0

CCSDS_OMM_VERS = 2.0
CREATION_DATE  = 
ORIGINATOR     = 

OBJECT_NAME    = STARLINK-35806
OBJECT_ID      = 2025-254R
CENTER_NAME    = EARTH
REF_FRAME      = TEME
TIME_SYSTEM    = UTC
MEAN_ELEMENT_THEORY = SGP/SGP4

EPOCH          = 2025-11-22T20:00:01.999008
MEAN_MOTION    = 15.74220701
ECCENTRICITY   = .0001164
INCLINATION    = 53.1589
RA_OF_ASC_NODE = 13.7070
ARG_OF_PERICENTER = 92.5395
MEAN_ANOMALY   = 29.0514

EPHEMERIS_TYPE = 0
CLASSIFICATION_TYPE = U
NORAD_CAT_ID   = 66363
ELEMENT_SET_NO = 999
REV_AT_EPOCH   = 369
BSTAR          = -.59358E-3
MEAN_MOTION_DOT = -.86789E-3
MEAN_MOTION_DDOT = 0

CCSDS_OMM_VERS = 2.0
CREATION_DATE  = 
ORIGINATOR     = 

OBJECT_NAME    = STARLINK-35797
OBJECT_ID      = 2025-254S
CENTER_NAME    = EARTH
REF_FRAME      = TEME
TIME_SYSTEM    = UTC
MEAN_ELEMENT_THEORY = SGP/SGP4

EPOCH          = 2025-11-22T20:00:01.999008
MEAN_MOTION    = 15.74145645
ECCENTRICITY   = .000105
INCLINATION    = 53.1589
RA_OF_ASC_NODE = 13.6985
ARG_OF_PERICENTER = 84.3185
MEAN_ANOMALY   = 41.1843

EPHEMERIS_TYPE = 0
CLASSIFICATION_TYPE = U
NORAD_CAT_ID   = 66364
ELEMENT_SET_NO = 999
REV_AT_EPOCH   = 372
BSTAR          = -.25027E-3
MEAN_MOTION_DOT = -.37052E-3
MEAN_MOTION_DDOT = 0

CCSDS_OMM_VERS = 2.0
CREATION_DATE  = 
ORIGINATOR     = 

OBJECT_NAME    = STARLINK-35827
OBJECT_ID      = 2025-254T
CENTER_NAME    = EARTH
REF_FRAME      = TEME
TIME_SYSTEM    = UTC
MEAN_ELEMENT_THEORY = SGP/SGP4

EPOCH          = 2025-11-22T20:00:01.999008
MEAN_MOTION    = 15.74179370
ECCENTRICITY   = .0001057
INCLINATION    = 53.1589
RA_OF_ASC_NODE = 13.6915
ARG_OF_PERICENTER = 93.7322
MEAN_ANOMALY   = 35.5353

EPHEMERIS_TYPE = 0
CLASSIFICATION_TYPE = U
NORAD_CAT_ID   = 66365
ELEMENT_SET_NO = 999
REV_AT_EPOCH   = 369
BSTAR          = -.22014E-3
MEAN_MOTION_DOT = -.3273E-3
MEAN_MOTION_DDOT = 0

CCSDS_OMM_VERS = 2.0
CREATION_DATE  = 
ORIGINATOR     = 

OBJECT_NAME    = STARLINK-35845
OBJECT_ID      = 2025-254U
CENTER_NAME    = EARTH
REF_FRAME      = TEME
TIME_SYSTEM    = UTC
MEAN_ELEMENT_THEORY = SGP/SGP4

EPOCH          = 2025-11-22T20:00:01.999008
MEAN_MOTION    = 15.74165604
ECCENTRICITY   = .0000989
INCLINATION    = 53.1589
RA_OF_ASC_NODE = 13.6946
ARG_OF_PERICENTER = 86.4041
MEAN_ANOMALY   = 40.9992

EPHEMERIS_TYPE = 0
CLASSIFICATION_TYPE = U
NORAD_CAT_ID   = 66366
ELEMENT_SET_NO = 999
REV_AT_EPOCH   = 372
BSTAR          = -.54305E-3
MEAN_MOTION_DOT = -.79335E-3
MEAN_MOTION_DDOT = 0

CCSDS_OMM_VERS = 2.0
CREATION_DATE  = 
ORIGINATOR     = 

OBJECT_NAME    = STARLINK-35846
OBJECT_ID      = 2025-254V
CENTER_NAME    = EARTH
REF_FRAME      = TEME
TIME_SYSTEM    = UTC
MEAN_ELEMENT_THEORY = SGP/SGP4

EPOCH          = 2025-11-22T20:00:01.999008
MEAN_MOTION    = 15.74214163
ECCENTRICITY   = .0001129
INCLINATION    = 53.1588
RA_OF_ASC_NODE = 13.6866
ARG_OF_PERICENTER = 94.2980
MEAN_ANOMALY   = 36.8770

EPHEMERIS_TYPE = 0
CLASSIFICATION_TYPE = U
NORAD_CAT_ID   = 66367
ELEMENT_SET_NO = 999
REV_AT_EPOCH   = 367
BSTAR          = -.53987E-3
MEAN_MOTION_DOT = -.79043E-3
MEAN_MOTION_DDOT = 0

CCSDS_OMM_VERS = 2.0
CREATION_DATE  = 
ORIGINATOR     = 

OBJECT_NAME    = STARLINK-34861
OBJECT_ID      = 2025-254W
CENTER_NAME    = EARTH
REF_FRAME      = TEME
TIME_SYSTEM    = UTC
MEAN_ELEMENT_THEORY = SGP/SGP4

EPOCH          = 2025-11-22T20:00:01.999008
MEAN_MOTION    = 15.74211692
ECCENTRICITY   = .0001387
INCLINATION    = 53.1587
RA_OF_ASC_NODE = 13.6777
ARG_OF_PERICENTER = 91.4088
MEAN_ANOMALY   = 43.5978

EPHEMERIS_TYPE = 0
CLASSIFICATION_TYPE = U
NORAD_CAT_ID   = 66368
ELEMENT_SET_NO = 999
REV_AT_EPOCH   = 377
BSTAR          = -.50684E-3
MEAN_MOTION_DOT = -.74282E-3
MEAN_MOTION_DDOT = 0

CCSDS_OMM_VERS = 2.0
CREATION_DATE  = 
ORIGINATOR     = 

OBJECT_NAME    = STARLINK-35795
OBJECT_ID      = 2025-254X
CENTER_NAME    = EARTH
REF_FRAME      = TEME
TIME_SYSTEM    = UTC
MEAN_ELEMENT_THEORY = SGP/SGP4

EPOCH          = 2025-11-22T20:00:01.999008
MEAN_MOTION    = 15.74204828
ECCENTRICITY   = .0001084
INCLINATION    = 53.1588
RA_OF_ASC_NODE = 13.6820
ARG_OF_PERICENTER = 79.0249
MEAN_ANOMALY   = 54.0685

EPHEMERIS_TYPE = 0
CLASSIFICATION_TYPE = U
NORAD_CAT_ID   = 66369
ELEMENT_SET_NO = 999
REV_AT_EPOCH   = 367
BSTAR          = -.34206E-3
MEAN_MOTION_DOT = -.5046E-3
MEAN_MOTION_DDOT = 0

CCSDS_OMM_VERS = 2.0
CREATION_DATE  = 
ORIGINATOR     = 

OBJECT_NAME    = STARLINK-35824
OBJECT_ID      = 2025-254Y
CENTER_NAME    = EARTH
REF_FRAME      = TEME
TIME_SYSTEM    = UTC
MEAN_ELEMENT_THEORY = SGP/SGP4

EPOCH          = 2025-11-22T20:00:01.999008
MEAN_MOTION    = 15.74100901
ECCENTRICITY   = .000126
INCLINATION    = 53.1588
RA_OF_ASC_NODE = 13.6744
ARG_OF_PERICENTER = 88.3083
MEAN_ANOMALY   = 48.5534

EPHEMERIS_TYPE = 0
CLASSIFICATION_TYPE = U
NORAD_CAT_ID   = 66370
ELEMENT_SET_NO = 999
REV_AT_EPOCH   = 369
BSTAR          = .49583E-3
MEAN_MOTION_DOT = .72335E-3
MEAN_MOTION_DDOT = 0

